     2.100          NAVIGATION                              RINEX VERSION / TYPE
fic2rin                                 03/14/2009 01:21:46 PGM / RUN BY / DATE
                                                            END OF HEADER
23 09  3 13  6  0  0.0  .388262793422D-03  .454747350886D-12  .000000000000D+00
     .920000000000D+02 -.990312500000D+02  .415410160643D-08  .550984603017D+00
    -.511854887009D-05  .584236020222D-02  .101570039988D-04  .515363902283D+04
     .453600000000D+06  .132247805595D-06  .308055209683D+01 -.931322574615D-08
     .971001156313D+00  .189500000000D+03  .287617643149D+01 -.797854662421D-08
    -.251081887140D-09  .100000000000D+01  .152200000000D+04  .000000000000D+00
     .240000000000D+01  .000000000000D+00 -.200234353542D-07  .920000000000D+02
     .446406000000D+06  .400000000000D+01
25 09  3 13  6  0  0.0  .297074206173D-03  .234194885707D-10  .000000000000D+00
     .162000000000D+03  .305312500000D+02  .419088885306D-08 -.284158544970D+01
     .164844095707D-05  .117227897281D-01  .113341957331D-04  .515366877556D+04
     .453600000000D+06  .987201929092D-07 -.225563533300D+01  .229105353355D-06
     .968720007671D+00  .160937500000D+03 -.121709804714D+01 -.766531929132D-08
     .593596154234D-09  .100000000000D+01  .152200000000D+04  .000000000000D+00
     .685000000000D+01  .000000000000D+00 -.745058059692D-08  .162000000000D+03
     .446406000000D+06  .400000000000D+01
26 09  3 13  6  0  0.0  .506462529302D-04  .250111042988D-11  .000000000000D+00
     .330000000000D+02 -.700625000000D+02  .373086969141D-08 -.405545848955D-01
    -.365637242794D-05  .202067882055D-01  .102557241917D-04  .515486474800D+04
     .453600000000D+06 -.726431608200D-07  .312852955879D+01  .251457095146D-06
     .993315244733D+00  .203906250000D+03  .982894354067D+00 -.797283210046D-08
    -.198579700213D-09  .100000000000D+01  .152200000000D+04  .000000000000D+00
     .240000000000D+01  .000000000000D+00 -.651925802231D-08  .330000000000D+02
     .446406000000D+06  .400000000000D+01
28 09  3 13  6  0  0.0 -.236541964114D-04 -.113686837722D-12  .000000000000D+00
     .480000000000D+02 -.151562500000D+02  .487770317592D-08  .223668225059D+01
    -.111758708954D-05  .147839016281D-01  .395067036152D-05  .515363418579D+04
     .453600000000D+06  .204890966415D-07 -.108386158641D+01 -.292435288429D-06
     .965689593351D+00  .305843750000D+03 -.204181757744D+01 -.816069706865D-08
    -.111433213069D-09  .100000000000D+01  .152200000000D+04  .000000000000D+00
     .340000000000D+01  .000000000000D+00 -.107102096081D-07  .480000000000D+02
     .446406000000D+06  .400000000000D+01
29 09  3 13  6  0  0.0 -.181235373020D-05  .386535248253D-11  .000000000000D+00
     .680000000000D+02 -.325312500000D+02  .429625038464D-08 -.193869416038D+01
    -.181421637535D-05  .333683867939D-02  .111013650894D-04  .515372700691D+04
     .453600000000D+06  .745058059692D-08 -.418914798969D-01  .126659870148D-06
     .960388487327D+00  .163187500000D+03 -.134197963936D+01 -.785175562857D-08
    -.541093967307D-09  .100000000000D+01  .152200000000D+04  .000000000000D+00
     .240000000000D+01  .000000000000D+00 -.884756445885D-08  .680000000000D+02
     .446406000000D+06  .400000000000D+01
30 09  3 13  6  0  0.0  .132054090500D-03  .250111042988D-11  .000000000000D+00
     .150000000000D+02 -.665625000000D+01  .525521890096D-08  .268578067464D+01
    -.391155481339D-06  .112104858272D-01  .325776636600D-05  .515362053680D+04
     .453600000000D+06  .113621354103D-06 -.115555050589D+01 -.158324837685D-06
     .950968117056D+00  .306843750000D+03  .141363064001D+01 -.837463455143D-08
    -.108933108930D-09  .100000000000D+01  .152200000000D+04  .000000000000D+00
     .240000000000D+01  .000000000000D+00 -.791624188423D-08  .150000000000D+02
     .446406000000D+06  .400000000000D+01
31 09  3 13  6  0  0.0 -.545345246792D-04 -.113686837722D-11  .000000000000D+00
     .600000000000D+02  .512812500000D+02  .437661087484D-08 -.114015242413D+01
     .256486237049D-05  .720824906603D-02  .108107924461D-04  .515366561317D+04
     .453600000000D+06 -.145286321640D-06 -.216348843898D+01  .204890966415D-07
     .971735086221D+00  .181562500000D+03 -.117083136109D+01 -.801104797802D-08
     .610025410007D-09  .100000000000D+01  .152200000000D+04  .000000000000D+00
     .240000000000D+01  .000000000000D+00 -.130385160446D-07  .600000000000D+02
     .446406000000D+06  .400000000000D+01
32 09  3 13  6  0  0.0  .287012662739D-03 -.386535248253D-11  .000000000000D+00
     .390000000000D+02 -.222187500000D+02  .485198781905D-08 -.270276438259D+00
    -.119581818581D-05  .134395846399D-01  .233575701714D-05  .515361028671D+04
     .453600000000D+06 -.286847352982D-06  .211350164881D+01 -.115483999252D-06
     .964702878513D+00  .338875000000D+03 -.118802007945D+01 -.872286334227D-08
    -.267868300647D-10  .100000000000D+01  .152200000000D+04  .000000000000D+00
     .240000000000D+01  .000000000000D+00 -.325962901115D-08  .390000000000D+02
     .446406000000D+06  .400000000000D+01
25 09  3 13  5 59 44.0  .297070015222D-03  .233058017329D-10  .000000000000D+00
     .500000000000D+01  .305312500000D+02  .419088885306D-08 -.284391933800D+01
     .164844095707D-05  .117227884475D-01  .113323330879D-04  .515366878510D+04
     .453584000000D+06  .987201929092D-07 -.225563522474D+01  .229105353355D-06
     .968720009134D+00  .160937500000D+03 -.121709796815D+01 -.766531929132D-08
     .593953311968D-09  .100000000000D+01  .152200000000D+04  .000000000000D+00
     .240000000000D+01  .000000000000D+00 -.745058059692D-08  .500000000000D+01
     .446706000000D+06  .400000000000D+01
 7 09  3 13  5 59 44.0  .217668712139D-04 -.454747350886D-12  .000000000000D+00
     .100000000000D+01  .383437500000D+02  .441732685654D-08 -.104920469431D+01
     .193901360035D-05  .233921618201D-02  .104270875454D-04  .515367769051D+04
     .453584000000D+06  .670552253723D-07 -.216100832324D+01  .353902578354D-07
     .966333466022D+00  .180843750000D+03  .291971852478D+01 -.797997525514D-08
     .606810990399D-09  .100000000000D+01  .152200000000D+04  .000000000000D+00
     .240000000000D+01  .000000000000D+00 -.107102096081D-07  .100000000000D+01
     .448506000000D+06  .400000000000D+01
19 09  3 13  5 59 44.0  .307527370751D-04 -.795807864051D-12  .000000000000D+00
     .110000000000D+02 -.324375000000D+02  .441625538333D-08  .108154871000D+01
    -.163540244102D-05  .533204246312D-02  .114813446999D-04  .515358122444D+04
     .453584000000D+06  .135973095894D-06  .616742562946D-02  .260770320892D-07
     .957933895118D+00  .150687500000D+03 -.380815344636D+00 -.793318759196D-08
    -.599310677981D-09  .100000000000D+01  .152200000000D+04  .000000000000D+00
     .240000000000D+01  .000000000000D+00 -.149011611938D-07  .110000000000D+02
     .452136000000D+06  .400000000000D+01
 2 09  3 13  5 59 44.0  .155017245561D-03 -.795807864051D-12  .000000000000D+00
     .600000000000D+01  .890312500000D+02  .490984737199D-08  .754644683443D+00
     .460073351860D-05  .900216586888D-02  .900775194168D-05  .515362919807D+04
     .453584000000D+06  .232830643654D-06  .968217172006D+00 -.391155481339D-07
     .941776576432D+00  .195031250000D+03  .274355067761D+01 -.834463330176D-08
     .273939982128D-09  .100000000000D+01  .152200000000D+04  .000000000000D+00
     .240000000000D+01  .000000000000D+00 -.172294676304D-07  .600000000000D+01
     .452226000000D+06  .400000000000D+01
 2 09  3 13  7 59 44.0  .155011191964D-03 -.795807864051D-12  .000000000000D+00
     .700000000000D+01  .111531250000D+03  .473876881731D-08  .180445061514D+01
     .589527189732D-05  .900251499843D-02  .974163413048D-05  .515363599205D+04
     .460784000000D+06  .502914190292D-07  .968158712336D+00  .117346644402D-06
     .941778525039D+00  .179687500000D+03  .274395329315D+01 -.818284084817D-08
     .134648465792D-09  .100000000000D+01  .152200000000D+04  .000000000000D+00
     .240000000000D+01  .000000000000D+00 -.172294676304D-07  .700000000000D+01
     .453606000000D+06  .400000000000D+01
 7 09  3 13  7 59 44.0  .217636115849D-04 -.454747350886D-12  .000000000000D+00
     .260000000000D+02  .398437500000D+02  .439339728835D-08  .101937302098D-02
     .208988785744D-05  .233888044022D-02  .106208026409D-04  .515367725372D+04
     .460784000000D+06  .223517417908D-07 -.216106582177D+01  .298023223877D-07
     .966338027400D+00  .176812500000D+03  .291967194986D+01 -.795961726429D-08
     .632526347261D-09  .100000000000D+01  .152200000000D+04  .000000000000D+00
     .240000000000D+01  .000000000000D+00 -.107102096081D-07  .260000000000D+02
     .453606000000D+06  .400000000000D+01
19 09  3 13  7 59 44.0  .307471491396D-04 -.795807864051D-12  .000000000000D+00
     .370000000000D+02 -.286875000000D+02  .449054419205D-08  .213180054790D+01
    -.124052166939D-05  .533240137156D-02  .115297734737D-04  .515358104515D+04
     .460784000000D+06  .109896063805D-06  .611025625384D-02  .122934579849D-06
     .957929598527D+00  .154531250000D+03 -.380830556058D+00 -.791961559806D-08
    -.564309220030D-09  .100000000000D+01  .152200000000D+04  .000000000000D+00
     .240000000000D+01  .000000000000D+00 -.149011611938D-07  .370000000000D+02
     .453606000000D+06  .400000000000D+01
 3 09  3 13  8  0  0.0  .364872161299D-03  .522959453519D-11  .000000000000D+00
     .500000000000D+02 -.514687500000D+02  .538522431621D-08  .144315452561D+01
    -.261887907982D-05  .117082566721D-01  .102650374174D-04  .515374435425D+04
     .460800000000D+06 -.255182385445D-06 -.178226370404D+00  .968575477600D-07
     .926633610032D+00  .168281250000D+03  .892770370007D+00 -.850249702027D-08
    -.615025618286D-09  .100000000000D+01  .152200000000D+04  .000000000000D+00
     .240000000000D+01  .000000000000D+00 -.419095158577D-08  .500000000000D+02
     .453606000000D+06  .400000000000D+01
